CCSDS_OMM_VERS = 2.0
CREATION_DATE  = 
ORIGINATOR     = 

OBJECT_NAME    = IDEFIX & ARIANE 42P R/B
OBJECT_ID      = 2002-021B
CENTER_NAME    = EARTH
REF_FRAME      = TEME
TIME_SYSTEM    = UTC
MEAN_ELEMENT_THEORY = SGP/SGP4

EPOCH          = 2026-02-05T01:15:56.692800
MEAN_MOTION    = 14.31001815
ECCENTRICITY   = .0010726
INCLINATION    = 98.5838
RA_OF_ASC_NODE = 335.0561
ARG_OF_PERICENTER = 285.9844
MEAN_ANOMALY   = 74.0157

EPHEMERIS_TYPE = 0
CLASSIFICATION_TYPE = U
NORAD_CAT_ID   = 27422
ELEMENT_SET_NO = 999
REV_AT_EPOCH   = 23935
BSTAR          = .17034E-3
MEAN_MOTION_DOT = .405E-5
MEAN_MOTION_DDOT = 0

CCSDS_OMM_VERS = 2.0
CREATION_DATE  = 
ORIGINATOR     = 

OBJECT_NAME    = AQUA
OBJECT_ID      = 2002-022A
CENTER_NAME    = EARTH
REF_FRAME      = TEME
TIME_SYSTEM    = UTC
MEAN_ELEMENT_THEORY = SGP/SGP4

EPOCH          = 2026-02-05T04:18:35.026848
MEAN_MOTION    = 14.61893931
ECCENTRICITY   = .0001623
INCLINATION    = 98.4118
RA_OF_ASC_NODE = 2.9677
ARG_OF_PERICENTER = 55.8395
MEAN_ANOMALY   = 33.7433

EPHEMERIS_TYPE = 0
CLASSIFICATION_TYPE = U
NORAD_CAT_ID   = 27424
ELEMENT_SET_NO = 999
REV_AT_EPOCH   = 26398
BSTAR          = .28816E-3
MEAN_MOTION_DOT = .1392E-4
MEAN_MOTION_DDOT = 0

CCSDS_OMM_VERS = 2.0
CREATION_DATE  = 
ORIGINATOR     = 

OBJECT_NAME    = CZ-4B R/B
OBJECT_ID      = 2002-024C
CENTER_NAME    = EARTH
REF_FRAME      = TEME
TIME_SYSTEM    = UTC
MEAN_ELEMENT_THEORY = SGP/SGP4

EPOCH          = 2026-02-05T02:30:41.251968
MEAN_MOTION    = 14.14541675
ECCENTRICITY   = .0051098
INCLINATION    = 98.8908
RA_OF_ASC_NODE = 89.6642
ARG_OF_PERICENTER = 115.2099
MEAN_ANOMALY   = 274.5506

EPHEMERIS_TYPE = 0
CLASSIFICATION_TYPE = U
NORAD_CAT_ID   = 27432
ELEMENT_SET_NO = 999
REV_AT_EPOCH   = 22463
BSTAR          = .56172E-4
MEAN_MOTION_DOT = .65E-6
MEAN_MOTION_DDOT = 0

CCSDS_OMM_VERS = 2.0
CREATION_DATE  = 
ORIGINATOR     = 

OBJECT_NAME    = MIDORI II (ADEOS-II)
OBJECT_ID      = 2002-056A
CENTER_NAME    = EARTH
REF_FRAME      = TEME
TIME_SYSTEM    = UTC
MEAN_ELEMENT_THEORY = SGP/SGP4

EPOCH          = 2026-02-04T21:37:41.314368
MEAN_MOTION    = 14.29259237
ECCENTRICITY   = .0002151
INCLINATION    = 98.7713
RA_OF_ASC_NODE = 354.1650
ARG_OF_PERICENTER = 89.0965
MEAN_ANOMALY   = 271.0463

EPHEMERIS_TYPE = 0
CLASSIFICATION_TYPE = U
NORAD_CAT_ID   = 27597
ELEMENT_SET_NO = 999
REV_AT_EPOCH   = 20561
BSTAR          = .18902E-3
MEAN_MOTION_DOT = .435E-5
MEAN_MOTION_DDOT = 0

CCSDS_OMM_VERS = 2.0
CREATION_DATE  = 
ORIGINATOR     = 

OBJECT_NAME    = H-2A R/B
OBJECT_ID      = 2002-056E
CENTER_NAME    = EARTH
REF_FRAME      = TEME
TIME_SYSTEM    = UTC
MEAN_ELEMENT_THEORY = SGP/SGP4

EPOCH          = 2026-02-04T21:47:12.801120
MEAN_MOTION    = 14.33736496
ECCENTRICITY   = .0068997
INCLINATION    = 98.3143
RA_OF_ASC_NODE = 357.5336
ARG_OF_PERICENTER = 259.2173
MEAN_ANOMALY   = 164.9244

EPHEMERIS_TYPE = 0
CLASSIFICATION_TYPE = U
NORAD_CAT_ID   = 27601
ELEMENT_SET_NO = 999
REV_AT_EPOCH   = 20941
BSTAR          = .16602E-3
MEAN_MOTION_DOT = .431E-5
MEAN_MOTION_DDOT = 0

CCSDS_OMM_VERS = 2.0
CREATION_DATE  = 
ORIGINATOR     = 

OBJECT_NAME    = CZ-4B R/B
OBJECT_ID      = 2003-049C
CENTER_NAME    = EARTH
REF_FRAME      = TEME
TIME_SYSTEM    = UTC
MEAN_ELEMENT_THEORY = SGP/SGP4

EPOCH          = 2026-02-04T23:50:46.697856
MEAN_MOTION    = 14.54982907
ECCENTRICITY   = .0047661
INCLINATION    = 98.6842
RA_OF_ASC_NODE = 29.6254
ARG_OF_PERICENTER = 332.8133
MEAN_ANOMALY   = 27.0568

EPHEMERIS_TYPE = 0
CLASSIFICATION_TYPE = U
NORAD_CAT_ID   = 28059
ELEMENT_SET_NO = 999
REV_AT_EPOCH   = 18184
BSTAR          = .16274E-3
MEAN_MOTION_DOT = .659E-5
MEAN_MOTION_DDOT = 0

CCSDS_OMM_VERS = 2.0
CREATION_DATE  = 
ORIGINATOR     = 

OBJECT_NAME    = CZ-2C R/B
OBJECT_ID      = 2004-012C
CENTER_NAME    = EARTH
REF_FRAME      = TEME
TIME_SYSTEM    = UTC
MEAN_ELEMENT_THEORY = SGP/SGP4

EPOCH          = 2026-02-05T03:23:19.166784
MEAN_MOTION    = 15.60807692
ECCENTRICITY   = .0016325
INCLINATION    = 97.7307
RA_OF_ASC_NODE = 98.4347
ARG_OF_PERICENTER = 72.6850
MEAN_ANOMALY   = 287.6190

EPHEMERIS_TYPE = 0
CLASSIFICATION_TYPE = U
NORAD_CAT_ID   = 28222
ELEMENT_SET_NO = 999
REV_AT_EPOCH   = 19919
BSTAR          = .70574E-3
MEAN_MOTION_DOT = .59373E-3
MEAN_MOTION_DDOT = 0

CCSDS_OMM_VERS = 2.0
CREATION_DATE  = 
ORIGINATOR     = 

OBJECT_NAME    = SL-16 R/B
OBJECT_ID      = 2004-021B
CENTER_NAME    = EARTH
REF_FRAME      = TEME
TIME_SYSTEM    = UTC
MEAN_ELEMENT_THEORY = SGP/SGP4

EPOCH          = 2026-02-05T03:23:31.147008
MEAN_MOTION    = 14.14589294
ECCENTRICITY   = .0002833
INCLINATION    = 71.0005
RA_OF_ASC_NODE = 300.8008
ARG_OF_PERICENTER = 91.1547
MEAN_ANOMALY   = 268.9900

EPHEMERIS_TYPE = 0
CLASSIFICATION_TYPE = U
NORAD_CAT_ID   = 28353
ELEMENT_SET_NO = 999
REV_AT_EPOCH   = 11823
BSTAR          = .20383E-4
MEAN_MOTION_DOT = -.8E-7
MEAN_MOTION_DDOT = 0

CCSDS_OMM_VERS = 2.0
CREATION_DATE  = 
ORIGINATOR     = 

OBJECT_NAME    = CZ-4B R/B
OBJECT_ID      = 2004-035C
CENTER_NAME    = EARTH
REF_FRAME      = TEME
TIME_SYSTEM    = UTC
MEAN_ELEMENT_THEORY = SGP/SGP4

EPOCH          = 2026-02-05T02:47:31.769088
MEAN_MOTION    = 15.28451122
ECCENTRICITY   = .0034294
INCLINATION    = 97.3544
RA_OF_ASC_NODE = 70.7563
ARG_OF_PERICENTER = 84.7194
MEAN_ANOMALY   = 275.7957

EPHEMERIS_TYPE = 0
CLASSIFICATION_TYPE = U
NORAD_CAT_ID   = 28415
ELEMENT_SET_NO = 999
REV_AT_EPOCH   = 17493
BSTAR          = .39695E-3
MEAN_MOTION_DOT = .11116E-3
MEAN_MOTION_DDOT = 0

CCSDS_OMM_VERS = 2.0
CREATION_DATE  = 
ORIGINATOR     = 

OBJECT_NAME    = CZ-2C R/B
OBJECT_ID      = 2004-046B
CENTER_NAME    = EARTH
REF_FRAME      = TEME
TIME_SYSTEM    = UTC
MEAN_ELEMENT_THEORY = SGP/SGP4

EPOCH          = 2026-02-05T03:51:23.641920
MEAN_MOTION    = 14.26980111
ECCENTRICITY   = .0138218
INCLINATION    = 98.1998
RA_OF_ASC_NODE = 313.1645
ARG_OF_PERICENTER = 250.9634
MEAN_ANOMALY   = 107.6533

EPHEMERIS_TYPE = 0
CLASSIFICATION_TYPE = U
NORAD_CAT_ID   = 28480
ELEMENT_SET_NO = 999
REV_AT_EPOCH   = 10386
BSTAR          = .91049E-4
MEAN_MOTION_DOT = .203E-5
MEAN_MOTION_DDOT = 0

CCSDS_OMM_VERS = 2.0
CREATION_DATE  = 
ORIGINATOR     = 

OBJECT_NAME    = ARIANE 5 R/B
OBJECT_ID      = 2004-049H
CENTER_NAME    = EARTH
REF_FRAME      = TEME
TIME_SYSTEM    = UTC
MEAN_ELEMENT_THEORY = SGP/SGP4

EPOCH          = 2026-02-05T00:36:52.985664
MEAN_MOTION    = 14.85196181
ECCENTRICITY   = .0085499
INCLINATION    = 98.2574
RA_OF_ASC_NODE = 203.2728
ARG_OF_PERICENTER = 96.8843
MEAN_ANOMALY   = 264.2107

EPHEMERIS_TYPE = 0
CLASSIFICATION_TYPE = U
NORAD_CAT_ID   = 28499
ELEMENT_SET_NO = 999
REV_AT_EPOCH   = 14094
BSTAR          = .15761E-3
MEAN_MOTION_DOT = .1378E-4
MEAN_MOTION_DDOT = 0

CCSDS_OMM_VERS = 2.0
CREATION_DATE  = 
ORIGINATOR     = 

OBJECT_NAME    = CZ-2D R/B
OBJECT_ID      = 2005-024B
CENTER_NAME    = EARTH
REF_FRAME      = TEME
TIME_SYSTEM    = UTC
MEAN_ELEMENT_THEORY = SGP/SGP4

EPOCH          = 2026-02-05T00:45:00.621216
MEAN_MOTION    = 15.57283094
ECCENTRICITY   = .0007107
INCLINATION    = 97.3614
RA_OF_ASC_NODE = 50.0521
ARG_OF_PERICENTER = 125.2131
MEAN_ANOMALY   = 234.9791

EPHEMERIS_TYPE = 0
CLASSIFICATION_TYPE = U
NORAD_CAT_ID   = 28738
ELEMENT_SET_NO = 999
REV_AT_EPOCH   = 13469
BSTAR          = .64304E-3
MEAN_MOTION_DOT = .47039E-3
MEAN_MOTION_DDOT = 0

