IDEFIX & ARIANE 42P R/B 
1 27422U 02021B   26036.05273950  .00000405  00000+0  17034-3 0  9996
2 27422  98.5838 335.0561 0010726 285.9844  74.0157 14.31001815239359
AQUA                    
1 27424U 02022A   26036.17957207  .00001392  00000+0  28816-3 0  9992
2 27424  98.4118   2.9677 0001623  55.8395  33.7433 14.61893931263986
CZ-4B R/B               
1 27432U 02024C   26036.10464412  .00000065  00000+0  56172-4 0  9990
2 27432  98.8908  89.6642 0051098 115.2099 274.5506 14.14541675224631
MIDORI II (ADEOS-II)    
1 27597U 02056A   26035.90117262  .00000435  00000+0  18902-3 0  9991
2 27597  98.7713 354.1650 0002151  89.0965 271.0463 14.29259237205618
H-2A R/B                
1 27601U 02056E   26035.90778705  .00000431  00000+0  16602-3 0  9993
2 27601  98.3143 357.5336 0068997 259.2173 164.9244 14.33736496209418
CZ-4B R/B               
1 28059U 03049C   26035.99359604  .00000659  00000+0  16274-3 0  9993
2 28059  98.6842  29.6254 0047661 332.8133  27.0568 14.54982907181847
CZ-2C R/B               
1 28222U 04012C   26036.14119406  .00059373  00000+0  70574-3 0  9998
2 28222  97.7307  98.4347 0016325  72.6850 287.6190 15.60807692199197
SL-16 R/B               
1 28353U 04021B   26036.14133272 -.00000008  00000+0  20383-4 0  9996
2 28353  71.0005 300.8008 0002833  91.1547 268.9900 14.14589294118234
CZ-4B R/B               
1 28415U 04035C   26036.11633992  .00011116  00000+0  39695-3 0  9997
2 28415  97.3544  70.7563 0034294  84.7194 275.7957 15.28451122174934
CZ-2C R/B               
1 28480U 04046B   26036.16069030  .00000203  00000+0  91049-4 0  9999
2 28480  98.1998 313.1645 0138218 250.9634 107.6533 14.26980111103869
ARIANE 5 R/B            
1 28499U 04049H   26036.02561326  .00001378  00000+0  15761-3 0  9992
2 28499  98.2574 203.2728 0085499  96.8843 264.2107 14.85196181140940
CZ-2D R/B               
1 28738U 05024B   26036.03125719  .00047039  00000+0  64304-3 0  9996
2 28738  97.3614  50.0521 0007107 125.2131 234.9791 15.57283094134695
